ONEWEB-0411             
1 51623U 22012B   26062.48693446 -.00000098  00000+0 -31767-3 0  9999
2 51623  87.8770  57.3106 0002380  92.8877 267.2522 13.10376874195441
ONEWEB-0415             
1 51624U 22012C   26062.48361600 -.00000292  00000+0 -87381-3 0  9993
2 51624  87.8766  57.3142 0002140  89.5002 270.6371 13.10375882195442
ONEWEB-0416             
1 51625U 22012D   26062.49524634  .00000334  00000+0  91952-3 0  9997
2 51625  87.8768  57.3327 0002288  82.3815 277.7572 13.10375813195485
ONEWEB-0422             
1 51626U 22012E   26062.44832804  .00000069  00000+0  14373-3 0  9991
2 51626  87.9151  26.8476 0001695 103.1018 257.0303 13.17648950199880
ONEWEB-0423             
1 51627U 22012F   26062.44156492  .00000023  00000+0  26661-4 0  9998
2 51627  87.9149  26.8587 0001757  83.3023 276.8308 13.17650311199771
ONEWEB-0425             
1 51628U 22012G   26062.50521168  .00000636  00000+0  17859-2 0  9999
2 51628  87.8770  57.3080 0001708  76.0461 284.0856 13.10374231195489
ONEWEB-0428             
1 51629U 22012H   26062.48527392 -.00000215  00000+0 -65314-3 0  9997
2 51629  87.8765  57.3252 0001806  87.9905 272.1429 13.10376494195441
ONEWEB-0431             
1 51630U 22012J   26062.45527728 -.00000171  00000+0 -52718-3 0  9994
2 51630  87.8767  57.3162 0002402  98.0692 262.0708 13.10369585195490
ONEWEB-0434             
1 51631U 22012K   26062.43231236  .00000698  00000+0  19623-2 0  9998
2 51631  87.8761  57.3496 0001527  67.8460 292.2830 13.10373111195478
ONEWEB-0435             
1 51632U 22012L   26062.44047471  .00000534  00000+0  14938-2 0  9999
2 51632  87.8760  57.3388 0001725 101.1013 259.0308 13.10371122195464
ONEWEB-0436             
1 51633U 22012M   26062.43312962  .00000053  00000+0  10273-3 0  9994
2 51633  87.9149  26.8388 0001865  88.8611 271.2734 13.17650117199754
ONEWEB-0438             
1 51634U 22012N   26062.50021345 -.00008856  00000+0 -25413-1 0  9996
2 51634  87.8764  57.3274 0001652  71.2701 288.8606 13.10421988195506
ONEWEB-0439             
1 51635U 22012P   26062.50355693  .00000569  00000+0  15931-2 0  9999
2 51635  87.8762  57.3158 0001771  86.7723 273.3606 13.10374260195489
ONEWEB-0442             
1 51636U 22012Q   26062.42554998  .00000050  00000+0  94456-4 0  9996
2 51636  87.9137  26.8801 0001930  63.5592 296.5738 13.17648547199742
ONEWEB-0443             
1 51637U 22012R   26062.44494742  .00000014  00000+0  39249-5 0  9999
2 51637  87.9140  26.8783 0001524  77.8672 282.2630 13.17650878199790
ONEWEB-0444             
1 51638U 22012S   26062.49358234  .00000198  00000+0  52973-3 0  9990
2 51638  87.8767  57.3167 0001791  88.0628 272.0705 13.10376944195496
ONEWEB-0445             
1 51639U 22012T   26062.43881862  .00000620  00000+0  17391-2 0  9997
2 51639  87.8772  57.3063 0002094  88.2981 271.8387 13.10371048195492
