[{"OBJECT_NAME":"ONEWEB-0411","OBJECT_ID":"2022-012B","EPOCH":"2026-03-03T11:41:11.137344","MEAN_MOTION":13.10376874,"ECCENTRICITY":0.000238,"INCLINATION":87.877,"RA_OF_ASC_NODE":57.3106,"ARG_OF_PERICENTER":92.8877,"MEAN_ANOMALY":267.2522,"EPHEMERIS_TYPE":0,"CLASSIFICATION_TYPE":"U","NORAD_CAT_ID":51623,"ELEMENT_SET_NO":999,"REV_AT_EPOCH":19544,"BSTAR":-0.00031767,"MEAN_MOTION_DOT":-9.8e-7,"MEAN_MOTION_DDOT":0},{"OBJECT_NAME":"ONEWEB-0415","OBJECT_ID":"2022-012C","EPOCH":"2026-03-03T11:36:24.422400","MEAN_MOTION":13.10375882,"ECCENTRICITY":0.000214,"INCLINATION":87.8766,"RA_OF_ASC_NODE":57.3142,"ARG_OF_PERICENTER":89.5002,"MEAN_ANOMALY":270.6371,"EPHEMERIS_TYPE":0,"CLASSIFICATION_TYPE":"U","NORAD_CAT_ID":51624,"ELEMENT_SET_NO":999,"REV_AT_EPOCH":19544,"BSTAR":-0.00087381,"MEAN_MOTION_DOT":-2.92e-6,"MEAN_MOTION_DDOT":0},{"OBJECT_NAME":"ONEWEB-0416","OBJECT_ID":"2022-012D","EPOCH":"2026-03-03T11:53:09.283776","MEAN_MOTION":13.10375813,"ECCENTRICITY":0.0002288,"INCLINATION":87.8768,"RA_OF_ASC_NODE":57.3327,"ARG_OF_PERICENTER":82.3815,"MEAN_ANOMALY":277.7572,"EPHEMERIS_TYPE":0,"CLASSIFICATION_TYPE":"U","NORAD_CAT_ID":51625,"ELEMENT_SET_NO":999,"REV_AT_EPOCH":19548,"BSTAR":0.00091952,"MEAN_MOTION_DOT":3.34e-6,"MEAN_MOTION_DDOT":0},{"OBJECT_NAME":"ONEWEB-0422","OBJECT_ID":"2022-012E","EPOCH":"2026-03-03T10:45:35.542656","MEAN_MOTION":13.1764895,"ECCENTRICITY":0.0001695,"INCLINATION":87.9151,"RA_OF_ASC_NODE":26.8476,"ARG_OF_PERICENTER":103.1018,"MEAN_ANOMALY":257.0303,"EPHEMERIS_TYPE":0,"CLASSIFICATION_TYPE":"U","NORAD_CAT_ID":51626,"ELEMENT_SET_NO":999,"REV_AT_EPOCH":19988,"BSTAR":0.00014373,"MEAN_MOTION_DOT":6.9e-7,"MEAN_MOTION_DDOT":0},{"OBJECT_NAME":"ONEWEB-0423","OBJECT_ID":"2022-012F","EPOCH":"2026-03-03T10:35:51.209088","MEAN_MOTION":13.17650311,"ECCENTRICITY":0.0001757,"INCLINATION":87.9149,"RA_OF_ASC_NODE":26.8587,"ARG_OF_PERICENTER":83.3023,"MEAN_ANOMALY":276.8308,"EPHEMERIS_TYPE":0,"CLASSIFICATION_TYPE":"U","NORAD_CAT_ID":51627,"ELEMENT_SET_NO":999,"REV_AT_EPOCH":19977,"BSTAR":2.6661e-5,"MEAN_MOTION_DOT":2.3e-7,"MEAN_MOTION_DDOT":0},{"OBJECT_NAME":"ONEWEB-0425","OBJECT_ID":"2022-012G","EPOCH":"2026-03-03T12:07:30.289152","MEAN_MOTION":13.10374231,"ECCENTRICITY":0.0001708,"INCLINATION":87.877,"RA_OF_ASC_NODE":57.308,"ARG_OF_PERICENTER":76.0461,"MEAN_ANOMALY":284.0856,"EPHEMERIS_TYPE":0,"CLASSIFICATION_TYPE":"U","NORAD_CAT_ID":51628,"ELEMENT_SET_NO":999,"REV_AT_EPOCH":19548,"BSTAR":0.0017859,"MEAN_MOTION_DOT":6.36e-6,"MEAN_MOTION_DDOT":0},{"OBJECT_NAME":"ONEWEB-0428","OBJECT_ID":"2022-012H","EPOCH":"2026-03-03T11:38:47.666688","MEAN_MOTION":13.10376494,"ECCENTRICITY":0.0001806,"INCLINATION":87.8765,"RA_OF_ASC_NODE":57.3252,"ARG_OF_PERICENTER":87.9905,"MEAN_ANOMALY":272.1429,"EPHEMERIS_TYPE":0,"CLASSIFICATION_TYPE":"U","NORAD_CAT_ID":51629,"ELEMENT_SET_NO":999,"REV_AT_EPOCH":19544,"BSTAR":-0.00065314,"MEAN_MOTION_DOT":-2.15e-6,"MEAN_MOTION_DDOT":0},{"OBJECT_NAME":"ONEWEB-0431","OBJECT_ID":"2022-012J","EPOCH":"2026-03-03T10:55:35.956992","MEAN_MOTION":13.10369585,"ECCENTRICITY":0.0002402,"INCLINATION":87.8767,"RA_OF_ASC_NODE":57.3162,"ARG_OF_PERICENTER":98.0692,"MEAN_ANOMALY":262.0708,"EPHEMERIS_TYPE":0,"CLASSIFICATION_TYPE":"U","NORAD_CAT_ID":51630,"ELEMENT_SET_NO":999,"REV_AT_EPOCH":19549,"BSTAR":-0.00052718,"MEAN_MOTION_DOT":-1.71e-6,"MEAN_MOTION_DDOT":0},{"OBJECT_NAME":"ONEWEB-0434","OBJECT_ID":"2022-012K","EPOCH":"2026-03-03T10:22:31.787904","MEAN_MOTION":13.10373111,"ECCENTRICITY":0.0001527,"INCLINATION":87.8761,"RA_OF_ASC_NODE":57.3496,"ARG_OF_PERICENTER":67.846,"MEAN_ANOMALY":292.283,"EPHEMERIS_TYPE":0,"CLASSIFICATION_TYPE":"U","NORAD_CAT_ID":51631,"ELEMENT_SET_NO":999,"REV_AT_EPOCH":19547,"BSTAR":0.0019623,"MEAN_MOTION_DOT":6.98e-6,"MEAN_MOTION_DDOT":0},{"OBJECT_NAME":"ONEWEB-0435","OBJECT_ID":"2022-012L","EPOCH":"2026-03-03T10:34:17.014944","MEAN_MOTION":13.10371122,"ECCENTRICITY":0.0001725,"INCLINATION":87.876,"RA_OF_ASC_NODE":57.3388,"ARG_OF_PERICENTER":101.1013,"MEAN_ANOMALY":259.0308,"EPHEMERIS_TYPE":0,"CLASSIFICATION_TYPE":"U","NORAD_CAT_ID":51632,"ELEMENT_SET_NO":999,"REV_AT_EPOCH":19546,"BSTAR":0.0014938,"MEAN_MOTION_DOT":5.34e-6,"MEAN_MOTION_DDOT":0},{"OBJECT_NAME":"ONEWEB-0436","OBJECT_ID":"2022-012M","EPOCH":"2026-03-03T10:23:42.399168","MEAN_MOTION":13.17650117,"ECCENTRICITY":0.0001865,"INCLINATION":87.9149,"RA_OF_ASC_NODE":26.8388,"ARG_OF_PERICENTER":88.8611,"MEAN_ANOMALY":271.2734,"EPHEMERIS_TYPE":0,"CLASSIFICATION_TYPE":"U","NORAD_CAT_ID":51633,"ELEMENT_SET_NO":999,"REV_AT_EPOCH":19975,"BSTAR":0.00010273,"MEAN_MOTION_DOT":5.3e-7,"MEAN_MOTION_DDOT":0},{"OBJECT_NAME":"ONEWEB-0438","OBJECT_ID":"2022-012N","EPOCH":"2026-03-03T12:00:18.442080","MEAN_MOTION":13.10421988,"ECCENTRICITY":0.0001652,"INCLINATION":87.8764,"RA_OF_ASC_NODE":57.3274,"ARG_OF_PERICENTER":71.2701,"MEAN_ANOMALY":288.8606,"EPHEMERIS_TYPE":0,"CLASSIFICATION_TYPE":"U","NORAD_CAT_ID":51634,"ELEMENT_SET_NO":999,"REV_AT_EPOCH":19550,"BSTAR":-0.025413,"MEAN_MOTION_DOT":-8.856e-5,"MEAN_MOTION_DDOT":0},{"OBJECT_NAME":"ONEWEB-0439","OBJECT_ID":"2022-012P","EPOCH":"2026-03-03T12:05:07.318752","MEAN_MOTION":13.1037426,"ECCENTRICITY":0.0001771,"INCLINATION":87.8762,"RA_OF_ASC_NODE":57.3158,"ARG_OF_PERICENTER":86.7723,"MEAN_ANOMALY":273.3606,"EPHEMERIS_TYPE":0,"CLASSIFICATION_TYPE":"U","NORAD_CAT_ID":51635,"ELEMENT_SET_NO":999,"REV_AT_EPOCH":19548,"BSTAR":0.0015931,"MEAN_MOTION_DOT":5.69e-6,"MEAN_MOTION_DDOT":0},{"OBJECT_NAME":"ONEWEB-0442","OBJECT_ID":"2022-012Q","EPOCH":"2026-03-03T10:12:47.518272","MEAN_MOTION":13.17648547,"ECCENTRICITY":0.000193,"INCLINATION":87.9137,"RA_OF_ASC_NODE":26.8801,"ARG_OF_PERICENTER":63.5592,"MEAN_ANOMALY":296.5738,"EPHEMERIS_TYPE":0,"CLASSIFICATION_TYPE":"U","NORAD_CAT_ID":51636,"ELEMENT_SET_NO":999,"REV_AT_EPOCH":19974,"BSTAR":9.4456e-5,"MEAN_MOTION_DOT":5.0e-7,"MEAN_MOTION_DDOT":0},{"OBJECT_NAME":"ONEWEB-0443","OBJECT_ID":"2022-012R","EPOCH":"2026-03-03T10:40:43.457088","MEAN_MOTION":13.17650878,"ECCENTRICITY":0.0001524,"INCLINATION":87.914,"RA_OF_ASC_NODE":26.8783,"ARG_OF_PERICENTER":77.8672,"MEAN_ANOMALY":282.263,"EPHEMERIS_TYPE":0,"CLASSIFICATION_TYPE":"U","NORAD_CAT_ID":51637,"ELEMENT_SET_NO":999,"REV_AT_EPOCH":19979,"BSTAR":3.9249e-6,"MEAN_MOTION_DOT":1.4e-7,"MEAN_MOTION_DDOT":0},{"OBJECT_NAME":"ONEWEB-0444","OBJECT_ID":"2022-012S","EPOCH":"2026-03-03T11:50:45.514176","MEAN_MOTION":13.10376944,"ECCENTRICITY":0.0001791,"INCLINATION":87.8767,"RA_OF_ASC_NODE":57.3167,"ARG_OF_PERICENTER":88.0628,"MEAN_ANOMALY":272.0705,"EPHEMERIS_TYPE":0,"CLASSIFICATION_TYPE":"U","NORAD_CAT_ID":51638,"ELEMENT_SET_NO":999,"REV_AT_EPOCH":19549,"BSTAR":0.00052973,"MEAN_MOTION_DOT":1.98e-6,"MEAN_MOTION_DDOT":0},{"OBJECT_NAME":"ONEWEB-0445","OBJECT_ID":"2022-012T","EPOCH":"2026-03-03T10:31:53.928768","MEAN_MOTION":13.10371048,"ECCENTRICITY":0.0002094,"INCLINATION":87.8772,"RA_OF_ASC_NODE":57.3063,"ARG_OF_PERICENTER":88.2981,"MEAN_ANOMALY":271.8387,"EPHEMERIS_TYPE":0,"CLASSIFICATION_TYPE":"U","NORAD_CAT_ID":51639,"ELEMENT_SET_NO":999,"REV_AT_EPOCH":19549,"BSTAR":0.0017391,"MEAN_MOTION_DOT":6.2e-6,"MEAN_MOTION_DDOT":0}]
